STARLINK-36114          
1 66870U 25281Y   25353.25002315  .00016331  00000+0  10923-3 0  9992
2 66870  43.0013  82.3498 0001523 266.0768 345.2235 15.75035081  2348
STARLINK-36095          
1 66871U 25281Z   25353.25002315 -.00044754  00000+0 -28942-3 0  9995
2 66871  43.0007  82.3448 0001504 266.6272 346.5841 15.75067175  2472
STARLINK-36082          
1 66872U 25281AA  25353.25002315 -.00040726  00000+0 -26291-3 0  9996
2 66872  43.0007  82.3403 0001612 255.8434 359.2776 15.75071889  2345
STARLINK-36128          
1 66873U 25281AB  25353.25002315 -.00024061  00000+0 -15389-3 0  9997
2 66873  43.0005  82.3252 0001794 258.9274   1.9657 15.75048816  2470
STARLINK-36129          
1 66874U 25281AC  25353.25002315 -.00142391  00000+0 -93576-3 0  9999
2 66874  43.0010  82.3350 0001647 258.5939 358.4347 15.75130559  2479
STARLINK-36053          
1 66875U 25281AD  25353.25002315  .00199580  00000+0  12759-2 0  9993
2 66875  43.0011  82.3196 0001512 258.2277   4.5350 15.74966156  2474
STARLINK-35702          
1 66876U 25281AE  25353.25002315 -.00034747  00000+0 -22377-3 0  9997
2 66876  43.0009  82.3300 0001858 283.1244 335.8373 15.75062908  2471
ZQ-3 R/B                
1 66877U 25282A   25353.22392637  .00959429  77151-5  17658-3 0  9999
2 66877  56.9493  32.6002 0724086 231.3151 122.0953 14.72748485  2349
STARLINK-35866          
1 66878U 25283A   25353.25002315 -.01355468  00000+0 -90270-2 0  9994
2 66878  53.1561  41.1209 0000944  75.5980 231.8516 15.77357580  3474
STARLINK-35749          
1 66879U 25283B   25353.25002315 -.01374973  00000+0 -92292-2 0  9993
2 66879  53.1559  41.1113 0000959  74.8037 237.0973 15.77221474  3474
STARLINK-35844          
1 66880U 25283C   25353.25002315 -.01362843  00000+0 -91064-2 0  9994
2 66880  53.1562  41.1166 0000927  76.8044 232.8307 15.77298401  3471
STARLINK-35860          
1 66881U 25283D   25353.25002315 -.01379431  00000+0 -92758-2 0  9997
2 66881  53.1560  41.1070 0001099 104.7824 209.1805 15.77188979  3470
