CCSDS_OMM_VERS = 2.0
CREATION_DATE  = 
ORIGINATOR     = 

OBJECT_NAME    = STARLINK-36114
OBJECT_ID      = 2025-281Y
CENTER_NAME    = EARTH
REF_FRAME      = TEME
TIME_SYSTEM    = UTC
MEAN_ELEMENT_THEORY = SGP/SGP4

EPOCH          = 2025-12-19T06:00:02.000160
MEAN_MOTION    = 15.75035081
ECCENTRICITY   = .00015232
INCLINATION    = 43.0013
RA_OF_ASC_NODE = 82.3498
ARG_OF_PERICENTER = 266.0768
MEAN_ANOMALY   = 345.2235

EPHEMERIS_TYPE = 0
CLASSIFICATION_TYPE = U
NORAD_CAT_ID   = 66870
ELEMENT_SET_NO = 999
REV_AT_EPOCH   = 234
BSTAR          = .10923217E-3
MEAN_MOTION_DOT = .16331E-3
MEAN_MOTION_DDOT = 0

CCSDS_OMM_VERS = 2.0
CREATION_DATE  = 
ORIGINATOR     = 

OBJECT_NAME    = STARLINK-36095
OBJECT_ID      = 2025-281Z
CENTER_NAME    = EARTH
REF_FRAME      = TEME
TIME_SYSTEM    = UTC
MEAN_ELEMENT_THEORY = SGP/SGP4

EPOCH          = 2025-12-19T06:00:02.000160
MEAN_MOTION    = 15.75067175
ECCENTRICITY   = .00015047
INCLINATION    = 43.0007
RA_OF_ASC_NODE = 82.3448
ARG_OF_PERICENTER = 266.6272
MEAN_ANOMALY   = 346.5841

EPHEMERIS_TYPE = 0
CLASSIFICATION_TYPE = U
NORAD_CAT_ID   = 66871
ELEMENT_SET_NO = 999
REV_AT_EPOCH   = 247
BSTAR          = -.28942181E-3
MEAN_MOTION_DOT = -.44754E-3
MEAN_MOTION_DDOT = 0

CCSDS_OMM_VERS = 2.0
CREATION_DATE  = 
ORIGINATOR     = 

OBJECT_NAME    = STARLINK-36082
OBJECT_ID      = 2025-281AA
CENTER_NAME    = EARTH
REF_FRAME      = TEME
TIME_SYSTEM    = UTC
MEAN_ELEMENT_THEORY = SGP/SGP4

EPOCH          = 2025-12-19T06:00:02.000160
MEAN_MOTION    = 15.75071889
ECCENTRICITY   = .00016125
INCLINATION    = 43.0007
RA_OF_ASC_NODE = 82.3403
ARG_OF_PERICENTER = 255.8434
MEAN_ANOMALY   = 359.2776

EPHEMERIS_TYPE = 0
CLASSIFICATION_TYPE = U
NORAD_CAT_ID   = 66872
ELEMENT_SET_NO = 999
REV_AT_EPOCH   = 234
BSTAR          = -.26290822E-3
MEAN_MOTION_DOT = -.40726E-3
MEAN_MOTION_DDOT = 0

CCSDS_OMM_VERS = 2.0
CREATION_DATE  = 
ORIGINATOR     = 

OBJECT_NAME    = STARLINK-36128
OBJECT_ID      = 2025-281AB
CENTER_NAME    = EARTH
REF_FRAME      = TEME
TIME_SYSTEM    = UTC
MEAN_ELEMENT_THEORY = SGP/SGP4

EPOCH          = 2025-12-19T06:00:02.000160
MEAN_MOTION    = 15.75048816
ECCENTRICITY   = .00017942
INCLINATION    = 43.0005
RA_OF_ASC_NODE = 82.3252
ARG_OF_PERICENTER = 258.9274
MEAN_ANOMALY   = 1.9657

EPHEMERIS_TYPE = 0
CLASSIFICATION_TYPE = U
NORAD_CAT_ID   = 66873
ELEMENT_SET_NO = 999
REV_AT_EPOCH   = 247
BSTAR          = -.15389402E-3
MEAN_MOTION_DOT = -.24061E-3
MEAN_MOTION_DDOT = 0

CCSDS_OMM_VERS = 2.0
CREATION_DATE  = 
ORIGINATOR     = 

OBJECT_NAME    = STARLINK-36129
OBJECT_ID      = 2025-281AC
CENTER_NAME    = EARTH
REF_FRAME      = TEME
TIME_SYSTEM    = UTC
MEAN_ELEMENT_THEORY = SGP/SGP4

EPOCH          = 2025-12-19T06:00:02.000160
MEAN_MOTION    = 15.75130559
ECCENTRICITY   = .00016475
INCLINATION    = 43.0010
RA_OF_ASC_NODE = 82.3350
ARG_OF_PERICENTER = 258.5939
MEAN_ANOMALY   = 358.4347

EPHEMERIS_TYPE = 0
CLASSIFICATION_TYPE = U
NORAD_CAT_ID   = 66874
ELEMENT_SET_NO = 999
REV_AT_EPOCH   = 247
BSTAR          = -.93576197E-3
MEAN_MOTION_DOT = -.142391E-2
MEAN_MOTION_DDOT = 0

CCSDS_OMM_VERS = 2.0
CREATION_DATE  = 
ORIGINATOR     = 

OBJECT_NAME    = STARLINK-36053
OBJECT_ID      = 2025-281AD
CENTER_NAME    = EARTH
REF_FRAME      = TEME
TIME_SYSTEM    = UTC
MEAN_ELEMENT_THEORY = SGP/SGP4

EPOCH          = 2025-12-19T06:00:02.000160
MEAN_MOTION    = 15.74966156
ECCENTRICITY   = .00015125
INCLINATION    = 43.0011
RA_OF_ASC_NODE = 82.3196
ARG_OF_PERICENTER = 258.2277
MEAN_ANOMALY   = 4.5350

EPHEMERIS_TYPE = 0
CLASSIFICATION_TYPE = U
NORAD_CAT_ID   = 66875
ELEMENT_SET_NO = 999
REV_AT_EPOCH   = 247
BSTAR          = .12758989E-2
MEAN_MOTION_DOT = .19958E-2
MEAN_MOTION_DDOT = 0

CCSDS_OMM_VERS = 2.0
CREATION_DATE  = 
ORIGINATOR     = 

OBJECT_NAME    = STARLINK-35702
OBJECT_ID      = 2025-281AE
CENTER_NAME    = EARTH
REF_FRAME      = TEME
TIME_SYSTEM    = UTC
MEAN_ELEMENT_THEORY = SGP/SGP4

EPOCH          = 2025-12-19T06:00:02.000160
MEAN_MOTION    = 15.75062908
ECCENTRICITY   = .00018581
INCLINATION    = 43.0009
RA_OF_ASC_NODE = 82.3300
ARG_OF_PERICENTER = 283.1244
MEAN_ANOMALY   = 335.8373

EPHEMERIS_TYPE = 0
CLASSIFICATION_TYPE = U
NORAD_CAT_ID   = 66876
ELEMENT_SET_NO = 999
REV_AT_EPOCH   = 247
BSTAR          = -.22377346E-3
MEAN_MOTION_DOT = -.34747E-3
MEAN_MOTION_DDOT = 0

CCSDS_OMM_VERS = 2.0
CREATION_DATE  = 
ORIGINATOR     = 

OBJECT_NAME    = ZQ-3 R/B
OBJECT_ID      = 2025-282A
CENTER_NAME    = EARTH
REF_FRAME      = TEME
TIME_SYSTEM    = UTC
MEAN_ELEMENT_THEORY = SGP/SGP4

EPOCH          = 2025-12-19T05:22:27.238368
MEAN_MOTION    = 14.72748485
ECCENTRICITY   = .07240863
INCLINATION    = 56.9493
RA_OF_ASC_NODE = 32.6002
ARG_OF_PERICENTER = 231.3151
MEAN_ANOMALY   = 122.0953

EPHEMERIS_TYPE = 0
CLASSIFICATION_TYPE = U
NORAD_CAT_ID   = 66877
ELEMENT_SET_NO = 999
REV_AT_EPOCH   = 234
BSTAR          = .17657765E-3
MEAN_MOTION_DOT = .959429E-2
MEAN_MOTION_DDOT = .7715073E-5

CCSDS_OMM_VERS = 2.0
CREATION_DATE  = 
ORIGINATOR     = 

OBJECT_NAME    = STARLINK-35866
OBJECT_ID      = 2025-283A
CENTER_NAME    = EARTH
REF_FRAME      = TEME
TIME_SYSTEM    = UTC
MEAN_ELEMENT_THEORY = SGP/SGP4

EPOCH          = 2025-12-19T06:00:02.000160
MEAN_MOTION    = 15.77357580
ECCENTRICITY   = .00009449
INCLINATION    = 53.1561
RA_OF_ASC_NODE = 41.1209
ARG_OF_PERICENTER = 75.5980
MEAN_ANOMALY   = 231.8516

EPHEMERIS_TYPE = 0
CLASSIFICATION_TYPE = U
NORAD_CAT_ID   = 66878
ELEMENT_SET_NO = 999
REV_AT_EPOCH   = 347
BSTAR          = -.90270335E-2
MEAN_MOTION_DOT = -.1355468E-1
MEAN_MOTION_DDOT = 0

CCSDS_OMM_VERS = 2.0
CREATION_DATE  = 
ORIGINATOR     = 

OBJECT_NAME    = STARLINK-35749
OBJECT_ID      = 2025-283B
CENTER_NAME    = EARTH
REF_FRAME      = TEME
TIME_SYSTEM    = UTC
MEAN_ELEMENT_THEORY = SGP/SGP4

EPOCH          = 2025-12-19T06:00:02.000160
MEAN_MOTION    = 15.77221474
ECCENTRICITY   = .00009598
INCLINATION    = 53.1559
RA_OF_ASC_NODE = 41.1113
ARG_OF_PERICENTER = 74.8037
MEAN_ANOMALY   = 237.0973

EPHEMERIS_TYPE = 0
CLASSIFICATION_TYPE = U
NORAD_CAT_ID   = 66879
ELEMENT_SET_NO = 999
REV_AT_EPOCH   = 347
BSTAR          = -.92291772E-2
MEAN_MOTION_DOT = -.1374973E-1
MEAN_MOTION_DDOT = 0

CCSDS_OMM_VERS = 2.0
CREATION_DATE  = 
ORIGINATOR     = 

OBJECT_NAME    = STARLINK-35844
OBJECT_ID      = 2025-283C
CENTER_NAME    = EARTH
REF_FRAME      = TEME
TIME_SYSTEM    = UTC
MEAN_ELEMENT_THEORY = SGP/SGP4

EPOCH          = 2025-12-19T06:00:02.000160
MEAN_MOTION    = 15.77298401
ECCENTRICITY   = .00009278
INCLINATION    = 53.1562
RA_OF_ASC_NODE = 41.1166
ARG_OF_PERICENTER = 76.8044
MEAN_ANOMALY   = 232.8307

EPHEMERIS_TYPE = 0
CLASSIFICATION_TYPE = U
NORAD_CAT_ID   = 66880
ELEMENT_SET_NO = 999
REV_AT_EPOCH   = 347
BSTAR          = -.91064129E-2
MEAN_MOTION_DOT = -.1362843E-1
MEAN_MOTION_DDOT = 0

CCSDS_OMM_VERS = 2.0
CREATION_DATE  = 
ORIGINATOR     = 

OBJECT_NAME    = STARLINK-35860
OBJECT_ID      = 2025-283D
CENTER_NAME    = EARTH
REF_FRAME      = TEME
TIME_SYSTEM    = UTC
MEAN_ELEMENT_THEORY = SGP/SGP4

EPOCH          = 2025-12-19T06:00:02.000160
MEAN_MOTION    = 15.77188979
ECCENTRICITY   = .0001099
INCLINATION    = 53.1560
RA_OF_ASC_NODE = 41.1070
ARG_OF_PERICENTER = 104.7824
MEAN_ANOMALY   = 209.1805

EPHEMERIS_TYPE = 0
CLASSIFICATION_TYPE = U
NORAD_CAT_ID   = 66881
ELEMENT_SET_NO = 999
REV_AT_EPOCH   = 347
BSTAR          = -.92757663E-2
MEAN_MOTION_DOT = -.1379431E-1
MEAN_MOTION_DDOT = 0

